SHENZHOU-22             
1 66645U 25272A   26073.00269975  .00029757  00000+0  34787-3 0  9992
2 66645  41.4663 181.9138 0006689 299.3968  60.6202 15.60904690267527
SOYUZ-MS 28             
1 66664U 25275A   26073.80519411  .00010373  00000+0  20105-3 0  9990
2 66664  51.6329  47.0659 0006371 190.9724 169.1126 15.48281436554525
DUPLEX                  
1 66906U 98067XS  26073.91541015  .00036173  00000+0  50354-3 0  9990
2 66906  51.6290  43.3045 0002739 136.2509 223.8700 15.56591153 15940
ISS OBJECT XT           
1 66907U 98067XT  26073.92906219  .00207522  00000+0  15762-2 0  9994
2 66907  51.6247  38.8754 0004692 114.9023 245.2462 15.71125912 16007
ISS OBJECT XU           
1 66908U 98067XU  26073.92682114  .00211029  00000+0  15925-2 0  9998
2 66908  51.6241  38.8570 0004960 116.2643 243.8865 15.71267428 16009
SILVERSAT               
1 66909U 98067XV  26073.91767339  .00271074  00000+0  17572-2 0  9997
2 66909  51.6238  38.0433 0005488 116.1770 243.9794 15.74646636 16010
ISS OBJECT XW           
1 66910U 98067XW  26073.92640604  .00181475  00000+0  14323-2 0  9991
2 66910  51.6237  38.8515 0005326 118.2073 241.9463 15.70288950 16007
ISS OBJECT XX           
1 66911U 98067XX  26073.90318958  .00367666  00000+0  19859-2 0  9991
2 66911  51.6205  37.1744 0006825 118.8306 241.3381 15.78504066 16010
ISS OBJECT XY           
1 66912U 98067XY  26073.94811659  .00114837  00000+0  11444-2 0  9994
2 66912  51.6268  40.5165 0003436 120.1038 240.0298 15.64801890 15975
KNACKSAT-2              
1 67683U 98067XZ  26073.94303171  .00050134  00000+0  81032-3 0  9995
2 67683  51.6311  45.7376 0009460 204.5444 155.5097 15.52300937  5601
GXIBA-1                 
1 67684U 98067YA  26073.19973932  .00100394  00000+0  14477-2 0  9993
2 67684  51.6308  49.0237 0011629 191.1014 168.9722 15.55114110  5494
CORAL                   
1 67685U 98067YB  26073.93727938  .00055005  00000+0  87390-3 0  9992
2 67685  51.6310  45.6991 0011517 200.8992 159.1529 15.52714905  5601
ISS OBJECT YC           
1 67686U 98067YC  26073.92975522  .00066333  00000+0  10276-2 0  9990
2 67686  51.6315  45.6515 0008271 169.8517 190.2642 15.53369363  5606
LEOPARD                 
1 67687U 98067YD  26073.94005420  .00051270  00000+0  82288-3 0  9991
2 67687  51.6312  45.7201 0008143 173.3259 186.7840 15.52499529  5526
ISS OBJECT YE           
1 67688U 98067YE  26073.93318041  .00060869  00000+0  95461-3 0  9998
2 67688  51.6312  45.6744 0008106 170.5287 189.5858 15.53068160  5521
CREW DRAGON 12          
1 67796U 26031A   26073.80519411  .00010373  00000+0  20105-3 0  9998
2 67796  51.6329  47.0659 0006371 190.9724 169.1126 15.48281436557020
